IRIDIUM 921             
1 24873U 97034E   24195.69602999  .00033450  00000+0  80301-3 0  9997
2 24873  86.3796 274.9716 0005962 138.8718 221.2987 15.41196673479261
IRIDIUM 26              
1 24903U 97043A   24195.86996205  .00000629  00000+0  20795-3 0  9999
2 24903  86.3942 252.5582 0002422  97.2867 262.8605 14.36433782408169
IRIDIUM 22              
1 24907U 97043E   24195.87656521  .00000620  00000+0  20956-3 0  9998
2 24907  86.3946 255.8143 0002233  93.3674 266.7777 14.35321340408235
DUMMY MASS 1            
1 24925U 97048A   24195.78739680  .00000718  00000+0  78488-4 0  9993
2 24925  86.3349 291.6980 0004444 263.4181  96.6538 14.86282057454859
DUMMY MASS 2            
1 24926U 97048B   24196.29971543  .00000754  00000+0  83051-4 0  9999
2 24926  86.3348 293.0094 0005247 277.5005  82.5623 14.86040733454957
IRIDIUM 29              
1 24944U 97051A   24195.80140846  .00000728  00000+0  24527-3 0  9996
2 24944  86.3953 285.7461 0001969  93.2866 266.8556 14.35772150404709
IRIDIUM 33              
1 24946U 97051C   24196.20203049  .00000516  00000+0  17628-3 0  9997
2 24946  86.3867 284.8277 0010095 100.0245 260.2091 14.34416249404297
IRIDIUM 28              
1 24948U 97051E   24195.78765378  .00000638  00000+0  20986-3 0  9995
2 24948  86.3957 283.4594 0002622  98.0492 262.1003 14.36726291405246
